NORAD_CAT_ID,OBJECT_NAME,OBJECT_TYPE,EPOCH,MEAN_MOTION,ECCENTRICITY,INCLINATION,RA_OF_ASC_NODE,ARG_OF_PERICENTER,MEAN_ANOMALY,BSTAR,MEAN_MOTION_DOT,MEAN_MOTION_DDOT,TLE_LINE0,TLE_LINE1,TLE_LINE2,SEMIMAJOR_AXIS,PERIOD,APOGEE,PERIGEE,DECAYED
52609.0,STARLINK-3997,PAYLOAD,2024-07-11 01:45:39,15.08856417,0.0001349,53.217,122.2822,90.4361,269.6786,0.0001247,1.698e-05,0.0,0 STARLINK-3997,1 52609U 22052M   24193.07337660  .00001698  00000-0  12470-3 0  9995,2 52609  53.2170 122.2822 0001349  90.4361 269.6786 15.08856417119652,6917.83,95.437,540.628,538.762,0.0
52609.0,STARLINK-3997,PAYLOAD,2024-07-11 04:56:25,15.08861868,0.0001292,53.2164,121.6859,100.9215,259.1922,0.00015087,2.115e-05,0.0,0 STARLINK-3997,1 52609U 22052M   24193.20585120  .00002115  00000-0  15087-3 0  9998,2 52609  53.2164 121.6859 0001292 100.9215 259.1922 15.08861868119304,6917.814,95.436,540.572,538.785,0.0
52609.0,STARLINK-3997,PAYLOAD,2024-07-12 04:47:13,15.08843706,0.0001259,53.2177,117.225,88.2876,271.826,0.00013969,1.936e-05,0.0,0 STARLINK-3997,1 52609U 22052M   24194.19946658  .00001936  00000-0  13969-3 0  9991,2 52609  53.2177 117.2250 0001259  88.2876 271.8260 15.08843706119822,6917.869,95.437,540.605,538.863,0.0
52609.0,STARLINK-3997,PAYLOAD,2024-07-12 22:16:28,15.08844363,0.0001453,53.2169,113.9517,98.3458,261.7698,-7.3496e-05,-1.458e-05,0.0,0 STARLINK-3997,1 52609U 22052M   24194.92811152 -.00001458  00000-0 -73496-4 0  9995,2 52609  53.2169 113.9517 0001453  98.3458 261.7698 15.08844363119560,6917.867,95.437,540.737,538.727,0.0
52609.0,STARLINK-3997,PAYLOAD,2024-07-13 10:59:33,15.08850147,0.0001297,53.2173,111.5738,89.3637,270.7503,-6.6268e-05,-1.343e-05,0.0,0 STARLINK-3997,1 52609U 22052M   24195.45802391 -.00001343  00000-0 -66268-4 0  9991,2 52609  53.2173 111.5738 0001297  89.3637 270.7503 15.08850147120013,6917.849,95.437,540.612,538.817,0.0
52609.0,STARLINK-3997,PAYLOAD,2024-07-13 18:56:30,15.08833934,0.0001429,53.2182,110.0887,90.9452,269.1704,-2.1216e-05,-6.26e-06,0.0,0 STARLINK-3997,1 52609U 22052M   24195.78923668 -.00000626  00000-0 -21216-4 0  9995,2 52609  53.2182 110.0887 0001429  90.9452 269.1704 15.08833934120067,6917.899,95.438,540.752,538.775,0.0
52609.0,STARLINK-3997,PAYLOAD,2024-07-13 22:07:16,15.08839759,0.0001545,53.2176,109.4952,83.814,276.3028,-9.4248e-06,-4.38e-06,0.0,0 STARLINK-3997,1 52609U 22052M   24195.92171329 -.00000438  00000-0 -94248-5 0  9997,2 52609  53.2176 109.4952 0001545  83.8140 276.3028 15.08839759119719,6917.881,95.438,540.815,538.677,0.0
52609.0,STARLINK-3997,PAYLOAD,2024-07-14 04:28:48,15.08846799,0.0001365,53.2179,108.3082,88.4863,271.6286,2.3276e-05,8.3e-07,0.0,0 STARLINK-3997,1 52609U 22052M   24196.18666833  .00000083  00000-0  23276-4 0  9991,2 52609  53.2179 108.3082 0001365  88.4863 271.6286 15.08846799120120,6917.86,95.437,540.669,538.78,0.0
52609.0,STARLINK-3997,PAYLOAD,2024-07-14 10:50:20,15.08841286,0.0001293,53.2171,107.1129,74.4962,285.6173,8.8652e-05,1.123e-05,0.0,0 STARLINK-3997,1 52609U 22052M   24196.45162988  .00001123  00000-0  88652-4 0  9998,2 52609  53.2171 107.1129 0001293  74.4962 285.6173 15.08841286119793,6917.876,95.437,540.636,538.847,0.0
52609.0,STARLINK-3997,PAYLOAD,2024-07-14 21:58:02,15.08843511,0.0001234,53.2166,105.0324,81.5388,278.5744,6.5237e-05,7.51e-06,0.0,0 STARLINK-3997,1 52609U 22052M   24196.91531003  .00000751  00000-0  65237-4 0  9997,2 52609  53.2166 105.0324 0001234  81.5388 278.5744 15.08843511119863,6917.87,95.437,540.588,538.881,0.0
52609.0,STARLINK-3997,PAYLOAD,2024-07-14 23:33:24,15.08863311,0.000121,53.2182,104.7364,69.0815,291.0306,0.00024652,3.64e-05,0.0,0 STARLINK-3997,1 52609U 22052M   24196.98153301  .00003640  00000-0  24652-3 0  9990,2 52609  53.2182 104.7364 0001210  69.0815 291.0306 15.08863311120249,6917.809,95.436,540.511,538.837,0.0
52609.0,STARLINK-3997,PAYLOAD,2024-07-15 10:41:07,15.0885124,0.0001201,53.2171,102.6532,77.4527,282.6599,0.00014027,1.946e-05,0.0,0 STARLINK-3997,1 52609U 22052M   24197.44522031  .00001946  00000-0  14027-3 0  9994,2 52609  53.2171 102.6532 0001201  77.4527 282.6599 15.08851240120310,6917.846,95.437,540.542,538.88,0.0
52609.0,STARLINK-3997,PAYLOAD,2024-07-15 21:48:50,15.08827164,0.0001428,53.2186,100.5789,100.6712,259.4441,-3.9095e-06,-3.5e-06,0.0,0 STARLINK-3997,1 52609U 22052M   24197.90892219 -.00000350  00000-0 -39095-5 0  9997,2 52609  53.2186 100.5789 0001428 100.6712 259.4441 15.08827164120016,6917.92,95.438,540.773,538.797,0.0
52609.0,STARLINK-3997,PAYLOAD,2024-07-16 02:34:59,15.08843443,0.000121,53.2166,99.6793,85.8845,274.2285,5.8007e-05,6.36e-06,0.0,0 STARLINK-3997,1 52609U 22052M   24198.10762976  .00000636  00000-0  58007-4 0  9994,2 52609  53.2166  99.6793 0001210  85.8845 274.2285 15.08843443120410,6917.87,95.437,540.572,538.898,0.0
52609.0,STARLINK-3997,PAYLOAD,2024-07-16 21:39:36,15.08844883,0.0001288,53.2175,96.1087,84.0343,276.0796,0.00010106,1.321e-05,0.0,0 STARLINK-3997,1 52609U 22052M   24198.90250758  .00001321  00000-0  10106-3 0  9991,2 52609  53.2175  96.1087 0001288  84.0343 276.0796 15.08844883120165,6917.865,95.437,540.621,538.839,0.0
52609.0,STARLINK-3997,PAYLOAD,2024-07-17 00:50:21,15.08862843,0.0001249,53.2176,95.5171,76.7287,283.3844,0.00014868,2.081e-05,0.0,0 STARLINK-3997,1 52609U 22052M   24199.03497455  .00002081  00000-0  14868-3 0  9996,2 52609  53.2176  95.5171 0001249  76.7287 283.3844 15.08862843120559,6917.811,95.436,540.54,538.812,0.0
52609.0,STARLINK-3997,PAYLOAD,2024-07-17 10:22:42,15.08832512,0.0001264,53.2187,93.7325,83.8615,276.2521,-8.8322e-05,-1.693e-05,0.0,0 STARLINK-3997,1 52609U 22052M   24199.43243887 -.00001693  00000-0 -88322-4 0  9995,2 52609  53.2187  93.7325 0001264  83.8615 276.2521 15.08832512120613,6917.903,95.438,540.643,538.894,0.0
52609.0,STARLINK-3997,PAYLOAD,2024-07-17 23:05:49,15.08808632,0.0001255,53.2172,91.3546,89.8177,270.2959,-7.0529e-05,-1.409e-05,0.0,0 STARLINK-3997,1 52609U 22052M   24199.96238274 -.00001409  00000-0 -70529-4 0  9992,2 52609  53.2172  91.3546 0001255  89.8177 270.2959 15.08808632120328,6917.976,95.44,540.709,538.973,0.0
52609.0,STARLINK-3997,PAYLOAD,2024-07-18 10:13:30,15.08837026,0.0001444,53.2191,89.2735,89.3029,270.8128,4.3047e-05,3.97e-06,0.0,0 STARLINK-3997,1 52609U 22052M   24200.42604593  .00000397  00000-0  43047-4 0  9995,2 52609  53.2191  89.2735 0001444  89.3029 270.8128 15.08837026120767,6917.889,95.438,540.753,538.756,0.0
52609.0,STARLINK-3997,PAYLOAD,2024-07-18 21:21:11,15.08844677,7.08e-05,53.2148,87.1964,57.0308,303.0752,0.00024288,3.58e-05,0.0,0 STARLINK-3997,1 52609U 22052M   24200.88971950  .00003580  00000-0  24288-3 0  9991,2 52609  53.2148  87.1964 0000708  57.0308 303.0752 15.08844677120463,6917.866,95.437,540.221,539.241,0.0
52609.0,STARLINK-3997,PAYLOAD,2024-07-19 02:07:20,15.08864192,0.0001569,53.2165,86.2982,101.8724,258.2444,0.00035174,5.318e-05,0.0,0 STARLINK-3997,1 52609U 22052M   24201.08842961  .00005318  00000-0  35174-3 0  9990,2 52609  53.2165  86.2982 0001569 101.8724 258.2444 15.08864192120865,6917.806,95.436,540.757,538.586,0.0
52609.0,STARLINK-3997,PAYLOAD,2024-07-19 10:04:16,15.08843745,0.0001483,53.217,84.8129,84.087,276.0292,9.8066e-05,1.273e-05,0.0,0 STARLINK-3997,1 52609U 22052M   24201.41964024  .00001273  00000-0  98066-4 0  9998,2 52609  53.2170  84.8129 0001483  84.0870 276.0292 15.08843745120913,6917.869,95.437,540.76,538.708,0.0
52609.0,STARLINK-3997,PAYLOAD,2024-07-19 21:11:59,15.08835885,0.0001414,53.2173,82.7291,103.0446,257.0704,0.00027498,4.091e-05,0.0,0 STARLINK-3997,1 52609U 22052M   24201.88332556  .00004091  00000-0  27498-3 0  9999,2 52609  53.2173  82.7291 0001414 103.0446 257.0704 15.08835885120988,6917.893,95.438,540.736,538.78,0.0
52609.0,STARLINK-3997,PAYLOAD,2024-07-19 22:47:22,15.08835843,0.0001357,53.2179,82.4342,91.9861,268.1287,0.0002614,3.874e-05,0.0,0 STARLINK-3997,1 52609U 22052M   24201.94956601  .00003874  00000-0  26140-3 0  9990,2 52609  53.2179  82.4342 0001357  91.9861 268.1287 15.08835843120624,6917.893,95.438,540.697,538.819,0.0
52609.0,STARLINK-3997,PAYLOAD,2024-07-20 01:58:08,15.08841453,0.0001447,53.2181,81.8368,95.8752,264.2405,0.00022973,3.37e-05,0.0,0 STARLINK-3997,1 52609U 22052M   24202.08204282  .00003370  00000-0  22973-3 0  9998,2 52609  53.2181  81.8368 0001447  95.8752 264.2405 15.08841453120645,6917.876,95.437,540.742,538.74,0.0
52609.0,STARLINK-3997,PAYLOAD,2024-07-20 22:38:08,15.08850807,0.0001253,53.2169,77.9748,88.7418,271.3717,9.8093e-06,-1.32e-06,0.0,0 STARLINK-3997,1 52609U 22052M   24202.94315554 -.00000132  00000-0  98093-5 0  9990,2 52609  53.2169  77.9748 0001253  88.7418 271.3717 15.08850807120776,6917.847,95.437,540.579,538.846,0.0
52609.0,STARLINK-3997,PAYLOAD,2024-07-21 01:48:54,15.08855161,0.0001063,53.2167,77.3765,85.2531,274.8583,-1.3121e-05,-4.97e-06,0.0,0 STARLINK-3997,1 52609U 22052M   24203.07563191 -.00000497  00000-0 -13121-4 0  9990,2 52609  53.2167  77.3765 0001063  85.2531 274.8583 15.08855161121165,6917.834,95.437,540.434,538.964,0.0
52609.0,STARLINK-3997,PAYLOAD,2024-07-21 22:28:56,15.08844572,0.0001211,53.2158,73.5061,50.293,309.8168,2.184e-05,6e-07,0.0,0 STARLINK-3997,1 52609U 22052M   24203.93676215  .00000060  00000-0  21840-4 0  9998,2 52609  53.2158  73.5061 0001211  50.2930 309.8168 15.08844572120927,6917.866,95.437,540.569,538.894,0.0
52609.0,STARLINK-3997,PAYLOAD,2024-07-22 01:39:42,15.08843166,0.0001167,53.2164,72.9156,86.8278,273.2848,7.893e-06,-1.62e-06,0.0,0 STARLINK-3997,1 52609U 22052M   24204.06924222 -.00000162  00000-0  78930-5 0  9994,2 52609  53.2164  72.9156 0001167  86.8278 273.2848 15.08843166121313,6917.871,95.437,540.543,538.928,0.0
52609.0,STARLINK-3997,PAYLOAD,2024-07-23 07:52:01,15.08850544,0.0001225,53.2167,67.2662,86.2634,273.8499,0.00014121,1.961e-05,0.0,0 STARLINK-3997,1 52609U 22052M   24205.32779627  .00001961  00000-0  14121-3 0  9998,2 52609  53.2167  67.2662 0001225  86.2634 273.8499 15.08850544121507,6917.848,95.437,540.561,538.866,0.0
